[{"OBJECT_NAME":"ONEWEB-0413","OBJECT_ID":"2021-132X","EPOCH":"2026-03-09T17:04:06.653568","MEAN_MOTION":13.18686655,"ECCENTRICITY":0.00016596,"INCLINATION":87.9241,"RA_OF_ASC_NODE":355.22,"ARG_OF_PERICENTER":87.5195,"MEAN_ANOMALY":272.6127,"EPHEMERIS_TYPE":0,"CLASSIFICATION_TYPE":"U","NORAD_CAT_ID":50490,"ELEMENT_SET_NO":999,"REV_AT_EPOCH":20848,"BSTAR":-6.2448772e-5,"MEAN_MOTION_DOT":-1.2e-7,"MEAN_MOTION_DDOT":0},{"OBJECT_NAME":"SL-14 DEB","OBJECT_ID":"1991-056L","EPOCH":"2026-03-09T20:31:07.530528","MEAN_MOTION":13.17697969,"ECCENTRICITY":0.00265082,"INCLINATION":82.5391,"RA_OF_ASC_NODE":205.444,"ARG_OF_PERICENTER":37.6548,"MEAN_ANOMALY":322.6423,"EPHEMERIS_TYPE":0,"CLASSIFICATION_TYPE":"U","NORAD_CAT_ID":45274,"ELEMENT_SET_NO":999,"REV_AT_EPOCH":29164,"BSTAR":0.0006773627,"MEAN_MOTION_DOT":2.76e-6,"MEAN_MOTION_DDOT":0}]
